H1 CPF 01  gfz 2021 08 03 12  7152 terrasarx 
H2 0702601  6201 31698    2021 08 03 12 59 42 2021 08 08 00 00 42   120 1 1  0 0 0
H9
10 0 59430  26622.000000  0    6452185.419  -2415653.735     42436.461
10 0 59430  26742.000000  0    6338315.284  -2562803.798   -860524.591
10 0 59430  26862.000000  0    6111599.258  -2662217.398  -1748351.792
10 0 59430  26982.000000  0    5776944.249  -2710261.702  -2605453.973
10 0 59430  27102.000000  0    5341202.230  -2704311.734  -3416809.526
10 0 59430  27222.000000  0    4813021.679  -2642824.772  -4168232.061
10 0 59430  27342.000000  0    4202666.919  -2525392.509  -4846617.975
10 0 59430  27462.000000  0    3521808.225  -2352769.202  -5440171.059
10 0 59430  27582.000000  0    2783289.853  -2126875.472  -5938598.504
10 0 59430  27702.000000  0    2000884.010  -1850779.183  -6333278.676
10 0 59430  27822.000000  0    1189032.201  -1528653.351  -6617400.936
10 0 59430  27942.000000  0     362578.670  -1165711.451  -6786072.047
10 0 59430  28062.000000  0    -463497.087   -768123.207  -6836391.066
10 0 59430  28182.000000  0   -1274345.716   -342911.343  -6767493.286
10 0 59430  28302.000000  0   -2055508.950    102169.666  -6580563.540
10 0 59430  28422.000000  0   -2793171.435    558771.390  -6278817.020
10 0 59430  28542.000000  0   -3474399.730   1018103.315  -5867450.146
10 0 59430  28662.000000  0   -4087367.560   1471097.439  -5353561.375
10 0 59430  28782.000000  0   -4621563.774   1908582.954  -4746040.298
10 0 59430  28902.000000  0   -5067978.517   2321469.971  -4055425.328
10 0 59430  29022.000000  0   -5419262.876   2700936.302  -3293730.128
10 0 59430  29142.000000  0   -5669859.541   3038613.986  -2474242.822
10 0 59430  29262.000000  0   -5816101.714   3326772.511  -1611298.782
10 0 59430  29382.000000  0   -5856275.667   3558493.827   -720029.882
10 0 59430  29502.000000  0   -5790644.545   3727834.026    183904.403
10 0 59430  29622.000000  0   -5621433.556   3829967.715   1084599.366
10 0 59430  29742.000000  0   -5352773.333   3861309.984   1966194.574
10 0 59430  29862.000000  0   -4990604.259   3819613.499   2813161.818
10 0 59430  29982.000000  0   -4542546.220   3704038.560   3610586.295
10 0 59430  30102.000000  0   -4017734.800   3515193.708   4344436.070
10 0 59430  30222.000000  0   -3426629.599   3255145.683   5001811.731
10 0 59430  30342.000000  0   -2780799.874   2927400.885   5571173.853
10 0 59430  30462.000000  0   -2092691.280   2536856.875   6042543.100
10 0 59430  30582.000000  0   -1375380.705   2089726.042   6407670.683
10 0 59430  30702.000000  0    -642323.393   1593433.019   6660175.401
10 0 59430  30822.000000  0      92899.540   1056489.025   6795648.243
10 0 59430  30942.000000  0     816832.388    488344.524   6811724.870
10 0 59430  31062.000000  0    1516390.126   -100776.832   6708123.835
10 0 59430  31182.000000  0    2179093.754   -700061.303   6486651.802
10 0 59430  31302.000000  0    2793292.481  -1298303.024   6151174.588
10 0 59430  31422.000000  0    3348370.198  -1884112.597   5707554.824
10 0 59430  31542.000000  0    3834932.533  -2446134.431   5163554.982
10 0 59430  31662.000000  0    4244970.183  -2973267.502   4528707.314
10 0 59430  31782.000000  0    4571996.297  -3454887.313   3814152.527
10 0 59430  31902.000000  0    4811155.190  -3881063.686   3032447.638
10 0 59430  32022.000000  0    4959299.863  -4242768.901   2197345.316
10 0 59430  32142.000000  0    5015034.320  -4532070.787   1323548.523
10 0 59430  32262.000000  0    4978720.405  -4742306.805    426446.531
10 0 59430  32382.000000  0    4852449.166  -4868234.768   -478163.395
10 0 59430  32502.000000  0    4639977.142  -4906155.238  -1374362.825
10 0 59430  32622.000000  0    4346628.902  -4854002.517  -2246401.327
10 0 59430  32742.000000  0    3979168.439  -4711402.385  -3078980.386
10 0 59430  32862.000000  0    3545643.096  -4479695.256  -3857526.305
10 0 59430  32982.000000  0    3055205.149  -4161925.068  -4568446.496
10 0 59430  33102.000000  0    2517914.813  -3762793.857  -5199364.506
10 0 59430  33222.000000  0    1944529.965  -3288584.473  -5739327.768
10 0 59430  33342.000000  0    1346289.884  -2747055.632  -6178987.318
10 0 59430  33462.000000  0     734695.137  -2147310.810  -6510749.860
10 0 59430  33582.000000  0     121287.653  -1499641.542  -6728898.660
10 0 59430  33702.000000  0    -482563.507   -815349.689  -6829681.413
10 0 59430  33822.000000  0   -1065867.312   -106552.460  -6811366.962
10 0 59430  33942.000000  0   -1618206.073    614027.306  -6674271.294
10 0 59430  34062.000000  0   -2129917.249   1333283.528  -6420752.303
10 0 59430  34182.000000  0   -2592258.593   2037959.384  -6055173.623
10 0 59430  34302.000000  0   -2997556.202   2714886.133  -5583838.256
10 0 59430  34422.000000  0   -3339332.935   3351226.851  -5014891.322
10 0 59430  34542.000000  0   -3612415.843   3934720.260  -4358191.047
10 0 59430  34662.000000  0   -3813019.003   4453919.840  -3625147.567
10 0 59430  34782.000000  0   -3938798.441   4898422.462  -2828532.536
10 0 59430  34902.000000  0   -3988879.901   5259082.426  -1982263.255
10 0 59430  35022.000000  0   -3963858.919   5528206.417  -1101162.590
10 0 59430  35142.000000  0   -3865770.914   5699724.654   -200697.300
10 0 59430  35262.000000  0   -3698030.931   5769329.871    703299.143
10 0 59430  35382.000000  0   -3465346.191   5734583.035   1594912.648
10 0 59430  35502.000000  0   -3173600.830   5594982.359   2458439.233
10 0 59430  35622.000000  0   -2829715.648   5351990.576   3278671.560
10 0 59430  35742.000000  0   -2441488.715   5009022.070   4041172.773
10 0 59430  35862.000000  0   -2017420.765   4571391.980   4732534.536
10 0 59430  35982.000000  0   -1566529.954   4046227.753   5340614.298
10 0 59430  36102.000000  0   -1098159.504   3442345.258   5854747.678
10 0 59430  36222.000000  0    -621783.773   2770092.566   6265930.962
10 0 59430  36342.000000  0    -146817.141   2041165.859   6566972.479
10 0 59430  36462.000000  0     317570.832   1268402.279   6752612.413
10 0 59430  36582.000000  0     762631.789    465550.931   6819609.403
10 0 59430  36702.000000  0    1180202.235   -352971.525   6766792.664
10 0 59430  36822.000000  0    1562852.366  -1172338.819   6595082.288
10 0 59430  36942.000000  0    1904018.219  -1977583.095   6307474.314
10 0 59430  37062.000000  0    2198114.876  -2753868.113   5908992.631
10 0 59430  37182.000000  0    2440629.320  -3486764.376   5406606.560
10 0 59430  37302.000000  0    2628190.731  -4162520.348   4809114.184
10 0 59430  37422.000000  0    2758617.235  -4768325.065   4126994.310
10 0 59430  37542.000000  0    2830939.249  -5292558.033   3372226.533
10 0 59430  37662.000000  0    2845397.044  -5725019.957   2558082.557
10 0 59430  37782.000000  0    2803412.721  -6057139.529   1698891.150
10 0 59430  37902.000000  0    2707536.552  -6282148.701    809781.699
10 0 59430  38022.000000  0    2561371.020  -6395224.964    -93587.140
10 0 59430  38142.000000  0    2369472.708  -6393596.893   -995311.787
10 0 59430  38262.000000  0    2137233.578  -6276606.500  -1879534.191
10 0 59430  38382.000000  0    1870745.626  -6045729.114  -2730728.125
10 0 59430  38502.000000  0    1576651.886  -5704550.762  -3533979.490
10 0 59430  38622.000000  0    1261988.612  -5258700.309  -4275249.298
10 0 59430  38742.000000  0     934024.927  -4715744.958  -4941617.257
10 0 59430  38862.000000  0     600101.152  -4085050.167  -5521501.520
10 0 59430  38982.000000  0     267470.182  -3377607.864  -6004851.893
10 0 59430  39102.000000  0     -56854.681  -2605836.754  -6383313.386
10 0 59430  39222.000000  0    -366242.342  -1783359.835  -6650359.064
10 0 59430  39342.000000  0    -654574.596   -924763.394  -6801391.849
10 0 59430  39462.000000  0    -916362.463    -45340.865  -6833815.733
10 0 59430  39582.000000  0   -1146847.236    839174.565  -6747074.453
10 0 59430  39702.000000  0   -1342084.856   1712883.939  -6542659.601
10 0 59430  39822.000000  0   -1499011.887   2560001.063  -6224087.466
10 0 59430  39942.000000  0   -1615493.074   3365131.796  -5796846.676
10 0 59430  40062.000000  0   -1690349.759   4113551.635  -5268313.270
10 0 59430  40182.000000  0   -1723368.106   4791475.648  -4647635.006
10 0 59430  40302.000000  0   -1715287.651   5386317.603  -3945583.886
10 0 59430  40422.000000  0   -1667769.118   5886931.041  -3174377.792
10 0 59430  40542.000000  0   -1583341.841   6283827.296  -2347474.956
10 0 59430  40662.000000  0   -1465332.583   6569367.182  -1479343.320
10 0 59430  40782.000000  0   -1317776.249   6737919.115   -585206.908
10 0 59430  40902.000000  0   -1145310.892   6785980.325    319223.569
10 0 59430  41022.000000  0    -953058.732   6712258.395   1218033.940
10 0 59430  41142.000000  0    -746496.826   6517706.453   2095397.768
10 0 59430  41262.000000  0    -531320.347   6205510.116   2935864.360
10 0 59430  41382.000000  0    -313302.410   5781031.029   3724637.139
10 0 59430  41502.000000  0     -98154.655   5251709.256   4447838.771
10 0 59430  41622.000000  0     108608.964   4626924.200   5092761.858
10 0 59430  41742.000000  0     301802.951   3917814.193   5648089.835
10 0 59430  41862.000000  0     476690.186   3137071.216   6104091.229
10 0 59430  41982.000000  0     629089.199   2298705.151   6452786.422
10 0 59430  42102.000000  0     755466.885   1417786.733   6688080.757
10 0 59430  42222.000000  0     853015.171    510172.925   6805865.234
10 0 59430  42342.000000  0     919710.136   -407778.790   6804082.891
10 0 59430  42462.000000  0     954352.670  -1319504.058   6682763.667
10 0 59430  42582.000000  0     956590.002  -2208530.438   6444024.403
10 0 59430  42702.000000  0     926917.764  -3058775.169   6092034.904
10 0 59430  42822.000000  0     866662.023  -3854838.478   5632948.518
10 0 59430  42942.000000  0     777942.540  -4582284.069   5074798.667
10 0 59430  43062.000000  0     663618.533  -5227904.837   4427365.192
99
